{
  "type": "FeatureCollection",
  "features": [
    {
      "type": "Feature",
      "properties": {
        "norad_id": 55268,
        "name": "GPS BIII-6  (PRN 28)",
        "group": "gnss",
        "lat": 24.68733666545543,
        "lon": -42.74235065099349,
        "alt_km": 20188.426175397737,
        "timestamp": "2025-12-09T04:51:47.739303+00:00",
        "meta_object_name": "GPS BIII-6  (PRN 28)",
        "meta_object_id": "2023-009A",
        "meta_epoch": "2025-12-08T05:52:26.989248",
        "meta_mean_motion": 2.00555991,
        "meta_eccentricity": 0.0003615,
        "meta_inclination": 55.1046,
        "meta_ra_of_asc_node": 156.0217,
        "meta_arg_of_pericenter": 356.7859,
        "meta_mean_anomaly": 180.9144,
        "meta_ephemeris_type": 0,
        "meta_classification_type": "U",
        "meta_norad_cat_id": 55268,
        "meta_element_set_no": 999,
        "meta_rev_at_epoch": 2141,
        "meta_bstar": 0,
        "meta_mean_motion_dot": 5.9e-07,
        "meta_mean_motion_ddot": 0,
        "tle_line1": "1 55268U 23009A   25342.24475682  .00000059  00000+0  00000+0 0  9996",
        "tle_line2": "2 55268  55.1046 156.0217 0003615 356.7859 180.9144  2.00555991 21410"
      },
      "geometry": {
        "type": "Point",
        "coordinates": [
          -42.74235065099349,
          24.68733666545543
        ]
      }
    },
    {
      "type": "Feature",
      "properties": {
        "norad_id": 56564,
        "name": "BEIDOU-3 G4 (C62)",
        "group": "gnss",
        "lat": 0.12568811214617048,
        "lon": -48.76859930661244,
        "alt_km": 35795.0345677165,
        "timestamp": "2025-12-09T04:51:47.739323+00:00",
        "meta_object_name": "BEIDOU-3 G4 (C62)",
        "meta_object_id": "2023-066A",
        "meta_epoch": "2025-12-08T19:30:04.457376",
        "meta_mean_motion": 1.00271176,
        "meta_eccentricity": 0.0003042,
        "meta_inclination": 0.8235,
        "meta_ra_of_asc_node": 301.7494,
        "meta_arg_of_pericenter": 235.8944,
        "meta_mean_anomaly": 352.7553,
        "meta_ephemeris_type": 0,
        "meta_classification_type": "U",
        "meta_norad_cat_id": 56564,
        "meta_element_set_no": 999,
        "meta_rev_at_epoch": 948,
        "meta_bstar": 0,
        "meta_mean_motion_dot": -1.09e-06,
        "meta_mean_motion_ddot": 0,
        "tle_line1": "1 56564U 23066A   25342.81255159 -.00000109  00000+0  00000+0 0  9994",
        "tle_line2": "2 56564   0.8235 301.7494 0003042 235.8944 352.7553  1.00271176  9484"
      },
      "geometry": {
        "type": "Point",
        "coordinates": [
          -48.76859930661244,
          0.12568811214617048
        ]
      }
    },
    {
      "type": "Feature",
      "properties": {
        "norad_id": 56759,
        "name": "NVS-01 (IRNSS-1J)",
        "group": "gnss",
        "lat": 1.2501113596834796,
        "lon": -79.41524227492687,
        "alt_km": 35753.46829054332,
        "timestamp": "2025-12-09T04:51:47.739341+00:00",
        "meta_object_name": "NVS-01 (IRNSS-1J)",
        "meta_object_id": "2023-076A",
        "meta_epoch": "2025-12-08T19:21:20.292768",
        "meta_mean_motion": 1.00264994,
        "meta_eccentricity": 0.0008677,
        "meta_inclination": 2.6279,
        "meta_ra_of_asc_node": 251.7413,
        "meta_arg_of_pericenter": 8.3202,
        "meta_mean_anomaly": 237.5268,
        "meta_ephemeris_type": 0,
        "meta_classification_type": "U",
        "meta_norad_cat_id": 56759,
        "meta_element_set_no": 999,
        "meta_rev_at_epoch": 920,
        "meta_bstar": 0,
        "meta_mean_motion_dot": -3.34e-06,
        "meta_mean_motion_ddot": 0,
        "tle_line1": "1 56759U 23076A   25342.80648487 -.00000334  00000+0  00000+0 0  9990",
        "tle_line2": "2 56759   2.6279 251.7413 0008677   8.3202 237.5268  1.00264994  9205"
      },
      "geometry": {
        "type": "Point",
        "coordinates": [
          -79.41524227492687,
          1.2501113596834796
        ]
      }
    },
    {
      "type": "Feature",
      "properties": {
        "norad_id": 57517,
        "name": "COSMOS 2569 (703K)",
        "group": "gnss",
        "lat": -1.202319680366195,
        "lon": 78.48429672596009,
        "alt_km": 19122.15401563803,
        "timestamp": "2025-12-09T04:51:47.739359+00:00",
        "meta_object_name": "COSMOS 2569 (703K)",
        "meta_object_id": "2023-114A",
        "meta_epoch": "2025-12-07T19:07:05.045952",
        "meta_mean_motion": 2.13103857,
        "meta_eccentricity": 0.00103488,
        "meta_inclination": 65.1916,
        "meta_ra_of_asc_node": 79.0806,
        "meta_arg_of_pericenter": 287.0317,
        "meta_mean_anomaly": 72.8691,
        "meta_ephemeris_type": 0,
        "meta_classification_type": "U",
        "meta_norad_cat_id": 57517,
        "meta_element_set_no": 999,
        "meta_rev_at_epoch": 1818,
        "meta_bstar": 0,
        "meta_mean_motion_dot": -1.2e-07,
        "meta_mean_motion_ddot": 0,
        "tle_line1": "1 57517U 23114A   25341.79658618 -.00000012  00000+0  00000+0 0  9993",
        "tle_line2": "2 57517  65.1916  79.0806 0010348 287.0317  72.8691  2.13103857 18180"
      },
      "geometry": {
        "type": "Point",
        "coordinates": [
          78.48429672596009,
          -1.202319680366195
        ]
      }
    },
    {
      "type": "Feature",
      "properties": {
        "norad_id": 58654,
        "name": "BEIDOU-3 M28 (C50)",
        "group": "gnss",
        "lat": -7.551983875781277,
        "lon": 63.522895662868436,
        "alt_km": 21528.67981697247,
        "timestamp": "2025-12-09T04:51:47.739379+00:00",
        "meta_object_name": "BEIDOU-3 M28 (C50)",
        "meta_object_id": "2023-207A",
        "meta_epoch": "2025-12-07T14:31:49.044000",
        "meta_mean_motion": 1.86229593,
        "meta_eccentricity": 0.0002234,
        "meta_inclination": 55.5801,
        "meta_ra_of_asc_node": 68.7753,
        "meta_arg_of_pericenter": 268.0478,
        "meta_mean_anomaly": 91.9457,
        "meta_ephemeris_type": 0,
        "meta_classification_type": "U",
        "meta_norad_cat_id": 58654,
        "meta_element_set_no": 999,
        "meta_rev_at_epoch": 1327,
        "meta_bstar": 0,
        "meta_mean_motion_dot": -4.6e-07,
        "meta_mean_motion_ddot": 0,
        "tle_line1": "1 58654U 23207A   25341.60542875 -.00000046  00000+0  00000+0 0  9993",
        "tle_line2": "2 58654  55.5801  68.7753 0002234 268.0478  91.9457  1.86229593 13279"
      },
      "geometry": {
        "type": "Point",
        "coordinates": [
          63.522895662868436,
          -7.551983875781277
        ]
      }
    },
    {
      "type": "Feature",
      "properties": {
        "norad_id": 58655,
        "name": "BEIDOU-3 M26 (C48)",
        "group": "gnss",
        "lat": 41.58247673296892,
        "lon": -148.68856890800785,
        "alt_km": 21529.205002457857,
        "timestamp": "2025-12-09T04:51:47.739399+00:00",
        "meta_object_name": "BEIDOU-3 M26 (C48)",
        "meta_object_id": "2023-207B",
        "meta_epoch": "2025-12-08T11:26:54.595392",
        "meta_mean_motion": 1.8623113,
        "meta_eccentricity": 0.00036549,
        "meta_inclination": 55.583,
        "meta_ra_of_asc_node": 68.7321,
        "meta_arg_of_pericenter": 253.8899,
        "meta_mean_anomaly": 106.0912,
        "meta_ephemeris_type": 0,
        "meta_classification_type": "U",
        "meta_norad_cat_id": 58655,
        "meta_element_set_no": 999,
        "meta_rev_at_epoch": 1327,
        "meta_bstar": 0,
        "meta_mean_motion_dot": -4.7e-07,
        "meta_mean_motion_ddot": 0,
        "tle_line1": "1 58655U 23207B   25342.47702078 -.00000047  00000+0  00000+0 0  9994",
        "tle_line2": "2 58655  55.5830  68.7321 0003654 253.8899 106.0912  1.86231130 13273"
      },
      "geometry": {
        "type": "Point",
        "coordinates": [
          -148.68856890800785,
          41.58247673296892
        ]
      }
    },
    {
      "type": "Feature",
      "properties": {
        "norad_id": 59598,
        "name": "GSAT0225 (GALILEO 29)",
        "group": "gnss",
        "lat": -54.92256849070917,
        "lon": 11.798119529312885,
        "alt_km": 23228.418070569543,
        "timestamp": "2025-12-09T04:51:47.739411+00:00",
        "meta_object_name": "GSAT0225 (GALILEO 29)",
        "meta_object_id": "2024-079A",
        "meta_epoch": "2025-12-07T07:17:21.433056",
        "meta_mean_motion": 1.70474562,
        "meta_eccentricity": 0.00020328,
        "meta_inclination": 54.9984,
        "meta_ra_of_asc_node": 106.4468,
        "meta_arg_of_pericenter": 173.4457,
        "meta_mean_anomaly": 8.4253,
        "meta_ephemeris_type": 0,
        "meta_classification_type": "U",
        "meta_norad_cat_id": 59598,
        "meta_element_set_no": 999,
        "meta_rev_at_epoch": 1004,
        "meta_bstar": 0,
        "meta_mean_motion_dot": 7e-08,
        "meta_mean_motion_ddot": 0,
        "tle_line1": "1 59598U 24079A   25341.30372029  .00000007  00000+0  00000+0 0  9994",
        "tle_line2": "2 59598  54.9984 106.4468 0002032 173.4457   8.4253  1.70474562 10047"
      },
      "geometry": {
        "type": "Point",
        "coordinates": [
          11.798119529312885,
          -54.92256849070917
        ]
      }
    }
  ]
}